GLOBALSTAR M068         
1 32266U 07048D   25322.64226198 -.00000028  00000+0  42243-3 0  9998
2 32266  51.9865 191.4224 0001979  96.1491 292.5783 12.62833645837075
GLOBALSTAR M079         
1 37188U 10054A   25322.60564855 -.00000089  00000+0  79913-4 0  9990
2 37188  52.0063  29.7111 0000273 152.4087 359.3347 12.62268568695959
GLOBALSTAR M074         
1 37189U 10054B   25322.63472940 -.00000085  00000+0  10534-3 0  9996
2 37189  52.0041  28.9204 0000424 103.7082  60.3801 12.62273217696561
GLOBALSTAR M076         
1 37190U 10054C   25322.66164336 -.00000092  00000+0  63182-4 0  9994
2 37190  52.0052  29.0252 0000244  89.7861  75.1727 12.62267424696281
GLOBALSTAR M077         
1 37191U 10054D   25322.56130970 -.00000070  00000+0  19634-3 0  9999
2 37191  52.0124 355.5475 0008927  93.1489  66.0783 11.95391628696490
GLOBALSTAR M075         
1 37192U 10054E   25322.66860066 -.00000113  00000+0 -49673-4 0  9993
2 37192  51.9954  71.1722 0000746 111.3743  26.5846 12.62269663695356
GLOBALSTAR M073         
1 37193U 10054F   25322.26025145 -.00000073  00000+0  17139-3 0  9996
2 37193  52.0081 346.3573 0000090  59.4429  20.3232 12.62264362697293
GLOBALSTAR M083         
1 37739U 11033A   25322.17919551 -.00000096  00000+0  44230-4 0  9991
2 37739  51.9868 295.1209 0000282  43.7176 329.4015 12.62264486666302
GLOBALSTAR M088         
1 37740U 11033B   25322.62970196 -.00000058  00000+0  25367-3 0  9992
2 37740  52.0198 199.6676 0001049  79.3761 300.8223 12.62270247661902
GLOBALSTAR M091         
1 37741U 11033C   25322.87904985 -.00000065  00000+0  21536-3 0  9995
2 37741  51.9967 162.1847 0001036  99.5381 274.1492 12.62261969662721
GLOBALSTAR M085         
1 37742U 11033D   25322.81495318 -.00000104  00000+0 -16627-5 0  9997
2 37742  52.0108 113.4860 0000954 117.9168  24.7833 12.62266858663227
GLOBALSTAR M081         
1 37743U 11033E   25322.84217492 -.00000101  00000+0  17526-4 0  9990
2 37743  51.9938 116.0779 0000791 106.8254  39.8367 12.62270602663374
GLOBALSTAR M089         
1 37744U 11033F   25322.80854203 -.00000121  00000+0 -95593-4 0  9997
2 37744  51.9937  70.3776 0000721  94.0382  80.7364 12.62272484664212
GLOBALSTAR M084         
1 38040U 11080A   25322.86416189 -.00000082  00000+0  12259-3 0  9994
2 38040  52.0022 297.5818 0000699  37.5317 329.0029 12.62265476642208
GLOBALSTAR M080         
1 38041U 11080B   25322.20350535 -.00000084  00000+0  11020-3 0  9992
2 38041  52.0074 301.2385 0000607 108.6313 264.0396 12.62271131642247
GLOBALSTAR M082         
1 38042U 11080C   25322.85731066 -.00000098  00000+0  30414-4 0  9990
2 38042  52.0077 254.7261 0000667  89.6814 305.3725 12.62264979643031
GLOBALSTAR M092         
1 38043U 11080D   25322.54202542 -.00000085  00000+0  10448-3 0  9999
2 38043  52.0106 346.0717 0000349  90.7425  70.3088 12.62267812641447
GLOBALSTAR M090         
1 38044U 11080E   25322.51801638 -.00000095  00000+0  50298-4 0  9997
2 38044  52.0124 249.6473 0000574  63.4764 108.0335 12.62264209643104
GLOBALSTAR M086         
1 38045U 11080F   25322.83011809 -.00000089  00000+0  84947-4 0  9997
2 38045  51.9897 248.9695 0000872 342.7340  55.8837 12.62279694643090
GLOBALSTAR M097         
1 39072U 13005A   25322.84948567 -.00000063  00000+0  23028-3 0  9992
2 39072  52.0020 163.6231 0000831  89.4809 270.6153 12.62267547590341
GLOBALSTAR M093         
1 39073U 13005B   25322.82345209 -.00000073  00000+0  17169-3 0  9995
2 39073  52.0075 156.9697 0000708 102.6347 257.4599 12.62270652590293
GLOBALSTAR M094         
1 39074U 13005C   25322.66483355 -.00000116  00000+0 -69699-4 0  9998
2 39074  51.9964  71.7755 0000594 132.7157 227.3759 12.62264952591880
GLOBALSTAR M096         
1 39075U 13005D   25322.83632660 -.00000104  00000+0 -28096-5 0  9997
2 39075  52.0048 119.8889 0000864 116.0119 244.0837 12.62268936590823
GLOBALSTAR M078         
1 39076U 13005E   25322.65206352 -.00000159  00000+0 -30830-3 0  9990
2 39076  51.9864 204.7552 0001277 121.8821 238.2170 12.62271725589421
GLOBALSTAR M095         
1 39077U 13005F   25321.96551356 -.00000067  00000+0  20600-3 0  9992
2 39077  52.0064 204.1492 0000777 103.2961 256.7993 12.62266426589190
GLOBALSTAR M087         
1 52888U 22064A   25322.77026723 -.00000088  00000+0  90622-4 0  9992
2 52888  52.0015 343.0558 0000200 137.2369 222.8514 12.62260549164560
